CCSDS_OMM_VERS = 2.0
CREATION_DATE  = 
ORIGINATOR     = 

OBJECT_NAME    = STARLINK-36415
OBJECT_ID      = 2026-012AC
CENTER_NAME    = EARTH
REF_FRAME      = TEME
TIME_SYSTEM    = UTC
MEAN_ELEMENT_THEORY = SGP/SGP4

EPOCH          = 2026-02-01T12:00:01.999296
MEAN_MOTION    = 15.88533816
ECCENTRICITY   = .0001077
INCLINATION    = 42.9962
RA_OF_ASC_NODE = 163.0470
ARG_OF_PERICENTER = 268.6588
MEAN_ANOMALY   = 259.2482

EPHEMERIS_TYPE = 0
CLASSIFICATION_TYPE = U
NORAD_CAT_ID   = 67519
ELEMENT_SET_NO = 999
REV_AT_EPOCH   = 340
BSTAR          = -.66789E-2
MEAN_MOTION_DOT = -.1680374E-1
MEAN_MOTION_DDOT = 0

CCSDS_OMM_VERS = 2.0
CREATION_DATE  = 
ORIGINATOR     = 

OBJECT_NAME    = STARLINK-36547
OBJECT_ID      = 2026-012AD
CENTER_NAME    = EARTH
REF_FRAME      = TEME
TIME_SYSTEM    = UTC
MEAN_ELEMENT_THEORY = SGP/SGP4

EPOCH          = 2026-02-01T12:00:01.999296
MEAN_MOTION    = 15.88333180
ECCENTRICITY   = .0001144
INCLINATION    = 42.9959
RA_OF_ASC_NODE = 163.0711
ARG_OF_PERICENTER = 277.4297
MEAN_ANOMALY   = 240.7698

EPHEMERIS_TYPE = 0
CLASSIFICATION_TYPE = U
NORAD_CAT_ID   = 67520
ELEMENT_SET_NO = 999
REV_AT_EPOCH   = 319
BSTAR          = -.68062E-2
MEAN_MOTION_DOT = -.1693159E-1
MEAN_MOTION_DDOT = 0

CCSDS_OMM_VERS = 2.0
CREATION_DATE  = 
ORIGINATOR     = 

OBJECT_NAME    = STARLINK-36444
OBJECT_ID      = 2026-012AE
CENTER_NAME    = EARTH
REF_FRAME      = TEME
TIME_SYSTEM    = UTC
MEAN_ELEMENT_THEORY = SGP/SGP4

EPOCH          = 2026-02-01T12:00:01.999296
MEAN_MOTION    = 15.88201206
ECCENTRICITY   = .0001294
INCLINATION    = 42.9964
RA_OF_ASC_NODE = 163.0843
ARG_OF_PERICENTER = 278.7741
MEAN_ANOMALY   = 234.6666

EPHEMERIS_TYPE = 0
CLASSIFICATION_TYPE = U
NORAD_CAT_ID   = 67521
ELEMENT_SET_NO = 999
REV_AT_EPOCH   = 319
BSTAR          = -.68595E-2
MEAN_MOTION_DOT = -.1694934E-1
MEAN_MOTION_DDOT = 0

CCSDS_OMM_VERS = 2.0
CREATION_DATE  = 
ORIGINATOR     = 

OBJECT_NAME    = HULIANWANG DIGUI-146
OBJECT_ID      = 2026-013A
CENTER_NAME    = EARTH
REF_FRAME      = TEME
TIME_SYSTEM    = UTC
MEAN_ELEMENT_THEORY = SGP/SGP4

EPOCH          = 2026-01-31T16:16:45.271200
MEAN_MOTION    = 13.93039903
ECCENTRICITY   = .00030326
INCLINATION    = 50.0072
RA_OF_ASC_NODE = 135.4585
ARG_OF_PERICENTER = 275.5687
MEAN_ANOMALY   = 84.4867

EPHEMERIS_TYPE = 0
CLASSIFICATION_TYPE = U
NORAD_CAT_ID   = 67522
ELEMENT_SET_NO = 999
REV_AT_EPOCH   = 173
BSTAR          = .11866405E-3
MEAN_MOTION_DOT = .8E-7
MEAN_MOTION_DDOT = 0

CCSDS_OMM_VERS = 2.0
CREATION_DATE  = 
ORIGINATOR     = 

OBJECT_NAME    = HULIANWANG DIGUI-147
OBJECT_ID      = 2026-013B
CENTER_NAME    = EARTH
REF_FRAME      = TEME
TIME_SYSTEM    = UTC
MEAN_ELEMENT_THEORY = SGP/SGP4

EPOCH          = 2026-01-27T15:54:55.270080
MEAN_MOTION    = 13.97615600
ECCENTRICITY   = .00107722
INCLINATION    = 50.0086
RA_OF_ASC_NODE = 151.5449
ARG_OF_PERICENTER = 261.1838
MEAN_ANOMALY   = 98.7844

EPHEMERIS_TYPE = 0
CLASSIFICATION_TYPE = U
NORAD_CAT_ID   = 67523
ELEMENT_SET_NO = 999
REV_AT_EPOCH   = 117
BSTAR          = .18036657E-4
MEAN_MOTION_DOT = -.123E-5
MEAN_MOTION_DDOT = 0

CCSDS_OMM_VERS = 2.0
CREATION_DATE  = 
ORIGINATOR     = 

OBJECT_NAME    = HULIANWANG DIGUI-148
OBJECT_ID      = 2026-013C
CENTER_NAME    = EARTH
REF_FRAME      = TEME
TIME_SYSTEM    = UTC
MEAN_ELEMENT_THEORY = SGP/SGP4

EPOCH          = 2026-01-21T10:36:54.841824
MEAN_MOTION    = 13.98087765
ECCENTRICITY   = .0010785
INCLINATION    = 50.0070
RA_OF_ASC_NODE = 176.6144
ARG_OF_PERICENTER = 240.3737
MEAN_ANOMALY   = 119.6091

EPHEMERIS_TYPE = 0
CLASSIFICATION_TYPE = U
NORAD_CAT_ID   = 67524
ELEMENT_SET_NO = 999
REV_AT_EPOCH   = 30
BSTAR          = .866E-5
MEAN_MOTION_DOT = -.137E-5
MEAN_MOTION_DDOT = 0

CCSDS_OMM_VERS = 2.0
CREATION_DATE  = 
ORIGINATOR     = 

OBJECT_NAME    = HULIANWANG DIGUI-149
OBJECT_ID      = 2026-013D
CENTER_NAME    = EARTH
REF_FRAME      = TEME
TIME_SYSTEM    = UTC
MEAN_ELEMENT_THEORY = SGP/SGP4

EPOCH          = 2026-01-21T03:45:07.528032
MEAN_MOTION    = 13.98123959
ECCENTRICITY   = .0010538
INCLINATION    = 50.0063
RA_OF_ASC_NODE = 177.7692
ARG_OF_PERICENTER = 247.0477
MEAN_ANOMALY   = 112.9313

EPHEMERIS_TYPE = 0
CLASSIFICATION_TYPE = U
NORAD_CAT_ID   = 67525
ELEMENT_SET_NO = 999
REV_AT_EPOCH   = 26
BSTAR          = .40401E-4
MEAN_MOTION_DOT = -.91E-6
MEAN_MOTION_DDOT = 0

CCSDS_OMM_VERS = 2.0
CREATION_DATE  = 
ORIGINATOR     = 

OBJECT_NAME    = HULIANWANG DIGUI-150
OBJECT_ID      = 2026-013E
CENTER_NAME    = EARTH
REF_FRAME      = TEME
TIME_SYSTEM    = UTC
MEAN_ELEMENT_THEORY = SGP/SGP4

EPOCH          = 2026-01-25T03:48:15.856704
MEAN_MOTION    = 13.98253437
ECCENTRICITY   = .0010015
INCLINATION    = 50.0096
RA_OF_ASC_NODE = 161.6201
ARG_OF_PERICENTER = 258.6345
MEAN_ANOMALY   = 101.3432

EPHEMERIS_TYPE = 0
CLASSIFICATION_TYPE = U
NORAD_CAT_ID   = 67526
ELEMENT_SET_NO = 999
REV_AT_EPOCH   = 84
BSTAR          = .2374E-4
MEAN_MOTION_DOT = -.115E-5
MEAN_MOTION_DDOT = 0

CCSDS_OMM_VERS = 2.0
CREATION_DATE  = 
ORIGINATOR     = 

OBJECT_NAME    = HULIANWANG DIGUI-151
OBJECT_ID      = 2026-013F
CENTER_NAME    = EARTH
REF_FRAME      = TEME
TIME_SYSTEM    = UTC
MEAN_ELEMENT_THEORY = SGP/SGP4

EPOCH          = 2026-01-21T03:44:45.585024
MEAN_MOTION    = 13.98327198
ECCENTRICITY   = .00098415
INCLINATION    = 50.0035
RA_OF_ASC_NODE = 177.7600
ARG_OF_PERICENTER = 238.6748
MEAN_ANOMALY   = 121.3191

EPHEMERIS_TYPE = 0
CLASSIFICATION_TYPE = U
NORAD_CAT_ID   = 67527
ELEMENT_SET_NO = 999
REV_AT_EPOCH   = 26
BSTAR          = -.32354314E-3
MEAN_MOTION_DOT = -.614E-5
MEAN_MOTION_DDOT = 0

CCSDS_OMM_VERS = 2.0
CREATION_DATE  = 
ORIGINATOR     = 

OBJECT_NAME    = HULIANWANG DIGUI-152
OBJECT_ID      = 2026-013G
CENTER_NAME    = EARTH
REF_FRAME      = TEME
TIME_SYSTEM    = UTC
MEAN_ELEMENT_THEORY = SGP/SGP4

EPOCH          = 2026-01-24T02:05:33.399168
MEAN_MOTION    = 13.97836723
ECCENTRICITY   = .0009745
INCLINATION    = 50.0047
RA_OF_ASC_NODE = 165.9375
ARG_OF_PERICENTER = 257.1222
MEAN_ANOMALY   = 102.8592

EPHEMERIS_TYPE = 0
CLASSIFICATION_TYPE = U
NORAD_CAT_ID   = 67528
ELEMENT_SET_NO = 999
REV_AT_EPOCH   = 67
BSTAR          = .21603E-4
MEAN_MOTION_DOT = -.118E-5
MEAN_MOTION_DDOT = 0

CCSDS_OMM_VERS = 2.0
CREATION_DATE  = 
ORIGINATOR     = 

OBJECT_NAME    = HULIANWANG DIGUI-153
OBJECT_ID      = 2026-013H
CENTER_NAME    = EARTH
REF_FRAME      = TEME
TIME_SYSTEM    = UTC
MEAN_ELEMENT_THEORY = SGP/SGP4

EPOCH          = 2026-01-21T20:53:29.548032
MEAN_MOTION    = 13.98474895
ECCENTRICITY   = .00089661
INCLINATION    = 50.0018
RA_OF_ASC_NODE = 174.8698
ARG_OF_PERICENTER = 242.4962
MEAN_ANOMALY   = 117.5029

EPHEMERIS_TYPE = 0
CLASSIFICATION_TYPE = U
NORAD_CAT_ID   = 67529
ELEMENT_SET_NO = 999
REV_AT_EPOCH   = 35
BSTAR          = .34277329E-4
MEAN_MOTION_DOT = -.1E-5
MEAN_MOTION_DDOT = 0

CCSDS_OMM_VERS = 2.0
CREATION_DATE  = 
ORIGINATOR     = 

OBJECT_NAME    = HULIANWANG DIGUI-154
OBJECT_ID      = 2026-013J
CENTER_NAME    = EARTH
REF_FRAME      = TEME
TIME_SYSTEM    = UTC
MEAN_ELEMENT_THEORY = SGP/SGP4

EPOCH          = 2026-01-21T05:27:11.749248
MEAN_MOTION    = 13.98568419
ECCENTRICITY   = .0008317
INCLINATION    = 50.0045
RA_OF_ASC_NODE = 177.4718
ARG_OF_PERICENTER = 246.2151
MEAN_ANOMALY   = 113.7880

EPHEMERIS_TYPE = 0
CLASSIFICATION_TYPE = U
NORAD_CAT_ID   = 67530
ELEMENT_SET_NO = 999
REV_AT_EPOCH   = 26
BSTAR          = .98151E-4
MEAN_MOTION_DOT = -.8E-7
MEAN_MOTION_DDOT = 0

